{"type": "FeatureCollection", "features": [ {"type": "Feature", "properties": {"norad_id": 66533, "name": "STARLINK-35707", "group": "last-30-days", "lat": -42.87980913136151, "lon": 6.040181274002614, "alt_km": 372.62600263845707, "timestamp": "2025-12-06T09:34:15.699431+00:00", "meta": {"OBJECT_NAME": "STARLINK-35707", "OBJECT_ID": "2025-265T", "EPOCH": "2025-12-05T22:00:03.000096", "MEAN_MOTION": 15.6799219, "ECCENTRICITY": 0.00015946, "INCLINATION": 43.0001, "RA_OF_ASC_NODE": 94.15, "ARG_OF_PERICENTER": 287.6081, "MEAN_ANOMALY": 143.096, "EPHEMERIS_TYPE": 0, "CLASSIFICATION_TYPE": "U", "NORAD_CAT_ID": 66533, "ELEMENT_SET_NO": 999, "REV_AT_EPOCH": 389, "BSTAR": -0.019358987, "MEAN_MOTION_DOT": -0.01950803, "MEAN_MOTION_DDOT": 0}, "tle": {"line1": "1 66533U 25265T   25339.91670139 -.01950803  00000+0 -19359-1 0  9996", "line2": "2 66533  43.0001  94.1500 0001594 287.6081 143.0960 15.67992190  3895"}}, "geometry": {"type": "Point", "coordinates": [6.040181274002614, -42.87980913136151]}}, {"type": "Feature", "properties": {"norad_id": 66534, "name": "STARLINK-35976", "group": "last-30-days", "lat": -42.74215277737365, "lon": 8.635136026464188, "alt_km": 372.5786458416487, "timestamp": "2025-12-06T09:34:15.699441+00:00", "meta": {"OBJECT_NAME": "STARLINK-35976", "OBJECT_ID": "2025-265U", "EPOCH": "2025-12-05T22:00:03.000096", "MEAN_MOTION": 15.67994936, "ECCENTRICITY": 0.00016878, "INCLINATION": 43.0005, "RA_OF_ASC_NODE": 94.1457, "ARG_OF_PERICENTER": 291.1338, "MEAN_ANOMALY": 141.4847, "EPHEMERIS_TYPE": 0, "CLASSIFICATION_TYPE": "U", "NORAD_CAT_ID": 66534, "ELEMENT_SET_NO": 999, "REV_AT_EPOCH": 389, "BSTAR": -0.0193913, "MEAN_MOTION_DOT": -0.01953946, "MEAN_MOTION_DDOT": 0}, "tle": {"line1": "1 66534U 25265U   25339.91670139 -.01953946  00000+0 -19391-1 0  9994", "line2": "2 66534  43.0005  94.1457 0001687 291.1338 141.4847 15.67994936  3895"}}, "geometry": {"type": "Point", "coordinates": [8.635136026464188, -42.74215277737365]}}, {"type": "Feature", "properties": {"norad_id": 66535, "name": "STARLINK-35514", "group": "last-30-days", "lat": -42.54512399710316, "lon": 11.221170553310806, "alt_km": 372.57834650881523, "timestamp": "2025-12-06T09:34:15.699451+00:00", "meta": {"OBJECT_NAME": "STARLINK-35514", "OBJECT_ID": "2025-265V", "EPOCH": "2025-12-05T22:00:03.000096", "MEAN_MOTION": 15.67993722, "ECCENTRICITY": 0.00016388, "INCLINATION": 43.0005, "RA_OF_ASC_NODE": 94.1408, "ARG_OF_PERICENTER": 289.5216, "MEAN_ANOMALY": 145.0172, "EPHEMERIS_TYPE": 0, "CLASSIFICATION_TYPE": "U", "NORAD_CAT_ID": 66535, "ELEMENT_SET_NO": 999, "REV_AT_EPOCH": 389, "BSTAR": -0.019401884, "MEAN_MOTION_DOT": -0.01954762, "MEAN_MOTION_DDOT": 0}, "tle": {"line1": "1 66535U 25265V   25339.91670139 -.01954762  00000+0 -19402-1 0  9995", "line2": "2 66535  43.0005  94.1408 0001638 289.5216 145.0172 15.67993722  3897"}}, "geometry": {"type": "Point", "coordinates": [11.221170553310806, -42.54512399710316]}}, {"type": "Feature", "properties": {"norad_id": 66536, "name": "STARLINK-35640", "group": "last-30-days", "lat": -42.289834000499404, "lon": 13.788589030018981, "alt_km": 372.582406286062, "timestamp": "2025-12-06T09:34:15.699463+00:00", "meta": {"OBJECT_NAME": "STARLINK-35640", "OBJECT_ID": "2025-265W", "EPOCH": "2025-12-05T22:00:03.000096", "MEAN_MOTION": 15.67993539, "ECCENTRICITY": 0.000158, "INCLINATION": 43.0002, "RA_OF_ASC_NODE": 94.136, "ARG_OF_PERICENTER": 288.4957, "MEAN_ANOMALY": 147.9594, "EPHEMERIS_TYPE": 0, "CLASSIFICATION_TYPE": "U", "NORAD_CAT_ID": 66536, "ELEMENT_SET_NO": 999, "REV_AT_EPOCH": 387, "BSTAR": -0.019385464, "MEAN_MOTION_DOT": -0.01953243, "MEAN_MOTION_DDOT": 0}, "tle": {"line1": "1 66536U 25265W   25339.91670139 -.01953243  00000+0 -19385-1 0  9999", "line2": "2 66536  43.0002  94.1360 0001580 288.4957 147.9594 15.67993539  3871"}}, "geometry": {"type": "Point", "coordinates": [13.788589030018981, -42.289834000499404]}}, {"type": "Feature", "properties": {"norad_id": 66537, "name": "STARLINK-35582", "group": "last-30-days", "lat": -41.97859054024861, "lon": 16.328729716841153, "alt_km": 372.5180045075631, "timestamp": "2025-12-06T09:34:15.699474+00:00", "meta": {"OBJECT_NAME": "STARLINK-35582", "OBJECT_ID": "2025-265X", "EPOCH": "2025-12-05T22:00:03.000096", "MEAN_MOTION": 15.6799828, "ECCENTRICITY": 0.00016492, "INCLINATION": 43.0004, "RA_OF_ASC_NODE": 94.1309, "ARG_OF_PERICENTER": 290.1547, "MEAN_ANOMALY": 148.2113, "EPHEMERIS_TYPE": 0, "CLASSIFICATION_TYPE": "U", "NORAD_CAT_ID": 66537, "ELEMENT_SET_NO": 999, "REV_AT_EPOCH": 389, "BSTAR": -0.01941373, "MEAN_MOTION_DOT": -0.01956149, "MEAN_MOTION_DDOT": 0}, "tle": {"line1": "1 66537U 25265X   25339.91670139 -.01956149  00000+0 -19414-1 0  9991", "line2": "2 66537  43.0004  94.1309 0001649 290.1547 148.2113 15.67998280  3899"}}, "geometry": {"type": "Point", "coordinates": [16.328729716841153, -41.97859054024861]}}, {"type": "Feature", "properties": {"norad_id": 66538, "name": "STARLINK-35577", "group": "last-30-days", "lat": -41.61107091600932, "lon": 18.845426458359146, "alt_km": 372.5307464880443, "timestamp": "2025-12-06T09:34:15.699484+00:00", "meta": {"OBJECT_NAME": "STARLINK-35577", "OBJECT_ID": "2025-265Y", "EPOCH": "2025-12-05T22:00:03.000096", "MEAN_MOTION": 15.67994698, "ECCENTRICITY": 0.00015912, "INCLINATION": 43.0005, "RA_OF_ASC_NODE": 94.1259, "ARG_OF_PERICENTER": 289.9248, "MEAN_ANOMALY": 150.3617, "EPHEMERIS_TYPE": 0, "CLASSIFICATION_TYPE": "U", "NORAD_CAT_ID": 66538, "ELEMENT_SET_NO": 999, "REV_AT_EPOCH": 389, "BSTAR": -0.019381418, "MEAN_MOTION_DOT": -0.01952974, "MEAN_MOTION_DDOT": 0}, "tle": {"line1": "1 66538U 25265Y   25339.91670139 -.01952974  00000+0 -19381-1 0  9997", "line2": "2 66538  43.0005  94.1259 0001591 289.9248 150.3617 15.67994698  3897"}}, "geometry": {"type": "Point", "coordinates": [18.845426458359146, -41.61107091600932]}}, {"type": "Feature", "properties": {"norad_id": 66539, "name": "STARLINK-35697", "group": "last-30-days", "lat": -41.18938332893692, "lon": 21.32989818325488, "alt_km": 372.4746388677504, "timestamp": "2025-12-06T09:34:15.699494+00:00", "meta": {"OBJECT_NAME": "STARLINK-35697", "OBJECT_ID": "2025-265Z", "EPOCH": "2025-12-05T22:00:03.000096", "MEAN_MOTION": 15.67994201, "ECCENTRICITY": 0.00016348, "INCLINATION": 43.0006, "RA_OF_ASC_NODE": 94.1209, "ARG_OF_PERICENTER": 290.0624, "MEAN_ANOMALY": 152.141, "EPHEMERIS_TYPE": 0, "CLASSIFICATION_TYPE": "U", "NORAD_CAT_ID": 66539, "ELEMENT_SET_NO": 999, "REV_AT_EPOCH": 389, "BSTAR": -0.019373522, "MEAN_MOTION_DOT": -0.0195227, "MEAN_MOTION_DDOT": 0}, "tle": {"line1": "1 66539U 25265Z   25339.91670139 -.01952270  00000+0 -19374-1 0  9999", "line2": "2 66539  43.0006  94.1209 0001634 290.0624 152.1410 15.67994201  3894"}}, "geometry": {"type": "Point", "coordinates": [21.32989818325488, -41.18938332893692]}}, {"type": "Feature", "properties": {"norad_id": 66540, "name": "STARLINK-35818", "group": "last-30-days", "lat": -40.71439994914052, "lon": 23.78105093750903, "alt_km": 372.43566839619507, "timestamp": "2025-12-06T09:34:15.699504+00:00", "meta": {"OBJECT_NAME": "STARLINK-35818", "OBJECT_ID": "2025-265AA", "EPOCH": "2025-12-05T22:00:03.000096", "MEAN_MOTION": 15.67994214, "ECCENTRICITY": 0.00016537, "INCLINATION": 43.0003, "RA_OF_ASC_NODE": 94.1164, "ARG_OF_PERICENTER": 290.6978, "MEAN_ANOMALY": 153.4223, "EPHEMERIS_TYPE": 0, "CLASSIFICATION_TYPE": "U", "NORAD_CAT_ID": 66540, "ELEMENT_SET_NO": 999, "REV_AT_EPOCH": 389, "BSTAR": -0.019372055, "MEAN_MOTION_DOT": -0.01952156, "MEAN_MOTION_DDOT": 0}, "tle": {"line1": "1 66540U 25265AA  25339.91670139 -.01952156  00000+0 -19372-1 0  9992", "line2": "2 66540  43.0003  94.1164 0001653 290.6978 153.4223 15.67994214  3892"}}, "geometry": {"type": "Point", "coordinates": [23.78105093750903, -40.71439994914052]}}, {"type": "Feature", "properties": {"norad_id": 66541, "name": "STARLINK-35796", "group": "last-30-days", "lat": -40.18801291544132, "lon": 26.197603485879224, "alt_km": 372.45006898424253, "timestamp": "2025-12-06T09:34:15.699513+00:00", "meta": {"OBJECT_NAME": "STARLINK-35796", "OBJECT_ID": "2025-265AB", "EPOCH": "2025-12-05T22:00:03.000096", "MEAN_MOTION": 15.67994803, "ECCENTRICITY": 0.00015911, "INCLINATION": 43.0004, "RA_OF_ASC_NODE": 94.1116, "ARG_OF_PERICENTER": 289.196, "MEAN_ANOMALY": 156.8426, "EPHEMERIS_TYPE": 0, "CLASSIFICATION_TYPE": "U", "NORAD_CAT_ID": 66541, "ELEMENT_SET_NO": 999, "REV_AT_EPOCH": 389, "BSTAR": -0.0193935, "MEAN_MOTION_DOT": -0.01954056, "MEAN_MOTION_DDOT": 0}, "tle": {"line1": "1 66541U 25265AB  25339.91670139 -.01954056  00000+0 -19394-1 0  9998", "line2": "2 66541  43.0004  94.1116 0001591 289.1960 156.8426 15.67994803  3892"}}, "geometry": {"type": "Point", "coordinates": [26.197603485879224, -40.18801291544132]}}, {"type": "Feature", "properties": {"norad_id": 66542, "name": "STARLINK-35833", "group": "last-30-days", "lat": -39.612634243659336, "lon": 28.572197495554363, "alt_km": 372.4989063367948, "timestamp": "2025-12-06T09:34:15.699523+00:00", "meta": {"OBJECT_NAME": "STARLINK-35833", "OBJECT_ID": "2025-265AC", "EPOCH": "2025-12-05T22:00:03.000096", "MEAN_MOTION": 15.67975303, "ECCENTRICITY": 0.00014814, "INCLINATION": 43.0004, "RA_OF_ASC_NODE": 94.1068, "ARG_OF_PERICENTER": 293.3525, "MEAN_ANOMALY": 154.6167, "EPHEMERIS_TYPE": 0, "CLASSIFICATION_TYPE": "U", "NORAD_CAT_ID": 66542, "ELEMENT_SET_NO": 999, "REV_AT_EPOCH": 389, "BSTAR": -0.019175611, "MEAN_MOTION_DOT": -0.01933186, "MEAN_MOTION_DDOT": 0}, "tle": {"line1": "1 66542U 25265AC  25339.91670139 -.01933186  00000+0 -19176-1 0  9998", "line2": "2 66542  43.0004  94.1068 0001481 293.3525 154.6167 15.67975303  3893"}}, "geometry": {"type": "Point", "coordinates": [28.572197495554363, -39.612634243659336]}}]}